{
    "type": "FeatureCollection",
    "features": [
        {
            "type": "Feature",
            "geometry": {
                "type": "Polygon",
                "coordinates": [
                    [
                        [
                            36.900444,
                            -1.305265
                        ],
                        [
                            36.900307,
                            -1.305583
                        ],
                        [
                            36.901229,
                            -1.306013
                        ],
                        [
                            36.901388,
                            -1.305681
                        ],
                        [
                            36.900444,
                            -1.305265
                        ]
                    ]
                ]
            },
            "properties": {
                "class": "formal"
            }
        },
        {
            "type": "Feature",
            "geometry": {
                "type": "Polygon",
                "coordinates": [
                    [
                        [
                            36.855,
                            -1.261
                        ],
                        [
                            36.855,
                            -1.263
                        ],
                        [
                            36.857,
                            -1.263
                        ],
                        [
                            36.857,
                            -1.261
                        ],
                        [
                            36.855,
                            -1.261
                        ]
                    ]
                ]
            },
            "properties": {
                "class": "informal",
                "name": "Mathare"
            }
        },
        {
            "type": "Feature",
            "geometry": {
                "type": "Polygon",
                "coordinates": [
                    [
                        [
                            36.882,
                            -1.247
                        ],
                        [
                            36.882005,
                            -1.247315
                        ],
                        [
                            36.881859,
                            -1.248506
                        ],
                        [
                            36.882196,
                            -1.2486
                        ],
                        [
                            36.882816,
                            -1.249328
                        ],
                        [
                            36.884,
                            -1.249
                        ],
                        [
                            36.883706,
                            -1.248196
                        ],
                        [
                            36.884,
                            -1.247
                        ],
                        [
                            36.882,
                            -1.247
                        ]
                    ]
                ]
            },
            "properties": {
                "class": "informal",
                "name": "Korogocho"
            }
        },
        {
            "type": "Feature",
            "geometry": {
                "type": "Polygon",
                "coordinates": [
                    [
                        [
                            36.809,
                            -1.264
                        ],
                        [
                            36.809,
                            -1.266
                        ],
                        [
                            36.811,
                            -1.266
                        ],
                        [
                            36.811,
                            -1.264
                        ],
                        [
                            36.809,
                            -1.264
                        ]
                    ]
                ]
            },
            "properties": {
                "class": "formal",
                "name": "Westlands"
            }
        },
        {
            "type": "Feature",
            "geometry": {
                "type": "Polygon",
                "coordinates": [
                    [
                        [
                            36.832,
                            -1.236
                        ],
                        [
                            36.832,
                            -1.238
                        ],
                        [
                            36.834,
                            -1.238
                        ],
                        [
                            36.834,
                            -1.236
                        ],
                        [
                            36.832,
                            -1.236
                        ]
                    ]
                ]
            },
            "properties": {
                "class": "other",
                "name": "Karura Forest"
            }
        },
        {
            "type": "Feature",
            "geometry": {
                "type": "Polygon",
                "coordinates": [
                    [
                        [
                            36.826,
                            -1.269
                        ],
                        [
                            36.826,
                            -1.271
                        ],
                        [
                            36.828,
                            -1.271
                        ],
                        [
                            36.828,
                            -1.269
                        ],
                        [
                            36.826,
                            -1.269
                        ]
                    ]
                ]
            },
            "properties": {
                "class": "vegetation",
                "name": "City Park"
            }
        },
        {
            "type": "Feature",
            "geometry": {
                "type": "Polygon",
                "coordinates": [
                    [
                        [
                            36.856379,
                            -1.304017
                        ],
                        [
                            36.856379,
                            -1.3058
                        ],
                        [
                            36.858,
                            -1.3058
                        ],
                        [
                            36.858,
                            -1.304017
                        ],
                        [
                            36.856379,
                            -1.304017
                        ]
                    ]
                ]
            },
            "properties": {
                "class": "formal",
                "name": "Industrial Area"
            }
        },
        {
            "type": "Feature",
            "geometry": {
                "type": "Polygon",
                "coordinates": [
                    [
                        [
                            36.867197,
                            -1.279567
                        ],
                        [
                            36.867649,
                            -1.27995
                        ],
                        [
                            36.867985,
                            -1.280239
                        ],
                        [
                            36.868981,
                            -1.279475
                        ],
                        [
                            36.869421,
                            -1.278317
                        ],
                        [
                            36.870035,
                            -1.277714
                        ],
                        [
                            36.870534,
                            -1.276591
                        ],
                        [
                            36.869839,
                            -1.276209
                        ],
                        [
                            36.869549,
                            -1.277043
                        ],
                        [
                            36.867197,
                            -1.279567
                        ]
                    ]
                ]
            },
            "properties": {
                "class": "informal",
                "name": "Jerusalem "
            }
        },
        {
            "type": "Feature",
            "geometry": {
                "type": "Polygon",
                "coordinates": [
                    [
                        [
                            36.868853,
                            -1.279781
                        ],
                        [
                            36.86899,
                            -1.279898
                        ],
                        [
                            36.869166,
                            -1.279996
                        ],
                        [
                            36.870419,
                            -1.279291
                        ],
                        [
                            36.870576,
                            -1.278626
                        ],
                        [
                            36.87179,
                            -1.278273
                        ],
                        [
                            36.872083,
                            -1.277647
                        ],
                        [
                            36.871946,
                            -1.276688
                        ],
                        [
                            36.872494,
                            -1.275396
                        ],
                        [
                            36.872357,
                            -1.274809
                        ],
                        [
                            36.871496,
                            -1.274594
                        ],
                        [
                            36.870165,
                            -1.277706
                        ],
                        [
                            36.869636,
                            -1.278293
                        ],
                        [
                            36.869186,
                            -1.279467
                        ],
                        [
                            36.868853,
                            -1.279781
                        ]
                    ]
                ]
            },
            "properties": {
                "class": "informal",
                "name": "Jerusalem 2"
            }
        },
        {
            "type": "Feature",
            "properties": {},
            "geometry": {
                "type": "Polygon",
                "coordinates": [
                    [
                        [
                            36.868012,
                            -1.280344
                        ],
                        [
                            36.868012,
                            -1.280344
                        ],
                        [
                            36.868012,
                            -1.280344
                        ],
                        [
                            36.868012,
                            -1.280344
                        ]
                    ]
                ]
            }
        },
        {
            "type": "Feature",
            "properties": {},
            "geometry": {
                "type": "Polygon",
                "coordinates": [
                    [
                        [
                            36.868016,
                            -1.280355
                        ],
                        [
                            36.868016,
                            -1.280355
                        ],
                        [
                            36.868016,
                            -1.280355
                        ],
                        [
                            36.868016,
                            -1.280355
                        ]
                    ]
                ]
            }
        },
        {
            "type": "Feature",
            "properties": {
                "class": "informal"
            },
            "geometry": {
                "type": "Polygon",
                "coordinates": [
                    [
                        [
                            36.868043,
                            -1.280371
                        ],
                        [
                            36.868463,
                            -1.281076
                        ],
                        [
                            36.869241,
                            -1.280482
                        ],
                        [
                            36.86871,
                            -1.279804
                        ],
                        [
                            36.868043,
                            -1.280371
                        ]
                    ]
                ]
            }
        },
        {
            "type": "Feature",
            "properties": {
                "class": "informal",
                "name": ""
            },
            "geometry": {
                "type": "Polygon",
                "coordinates": [
                    [
                        [
                            36.867976,
                            -1.280593
                        ],
                        [
                            36.867178,
                            -1.281284
                        ],
                        [
                            36.867178,
                            -1.281284
                        ],
                        [
                            36.866531,
                            -1.280419
                        ],
                        [
                            36.865708,
                            -1.28151
                        ],
                        [
                            36.862966,
                            -1.282663
                        ],
                        [
                            36.863402,
                            -1.28373
                        ],
                        [
                            36.865557,
                            -1.283087
                        ],
                        [
                            36.866069,
                            -1.282239
                        ],
                        [
                            36.867489,
                            -1.28202
                        ],
                        [
                            36.867968,
                            -1.281953
                        ],
                        [
                            36.868379,
                            -1.281206
                        ],
                        [
                            36.867976,
                            -1.280593
                        ]
                    ]
                ]
            }
        },
        {
            "type": "Feature",
            "properties": {
                "class": "formal"
            },
            "geometry": {
                "type": "Polygon",
                "coordinates": [
                    [
                        [
                            36.85759,
                            -1.282869
                        ],
                        [
                            36.853156,
                            -1.283749
                        ],
                        [
                            36.852885,
                            -1.283997
                        ],
                        [
                            36.853325,
                            -1.286072
                        ],
                        [
                            36.858143,
                            -1.285091
                        ],
                        [
                            36.85759,
                            -1.282869
                        ]
                    ]
                ]
            }
        },
        {
            "type": "Feature",
            "properties": {
                "class": "other"
            },
            "geometry": {
                "type": "Polygon",
                "coordinates": [
                    [
                        [
                            36.856107,
                            -1.285937
                        ],
                        [
                            36.856061,
                            -1.285672
                        ],
                        [
                            36.855293,
                            -1.285814
                        ],
                        [
                            36.855397,
                            -1.286201
                        ],
                        [
                            36.854771,
                            -1.286298
                        ],
                        [
                            36.854816,
                            -1.286517
                        ],
                        [
                            36.855713,
                            -1.28635
                        ],
                        [
                            36.855726,
                            -1.286472
                        ],
                        [
                            36.855319,
                            -1.286595
                        ],
                        [
                            36.855377,
                            -1.286937
                        ],
                        [
                            36.855126,
                            -1.287008
                        ],
                        [
                            36.855164,
                            -1.28724
                        ],
                        [
                            36.856778,
                            -1.28695
                        ],
                        [
                            36.856681,
                            -1.286369
                        ],
                        [
                            36.856533,
                            -1.286382
                        ],
                        [
                            36.8565,
                            -1.286117
                        ],
                        [
                            36.856223,
                            -1.286162
                        ],
                        [
                            36.856249,
                            -1.286388
                        ],
                        [
                            36.856081,
                            -1.286317
                        ],
                        [
                            36.855894,
                            -1.286337
                        ],
                        [
                            36.855777,
                            -1.285995
                        ],
                        [
                            36.855777,
                            -1.285995
                        ],
                        [
                            36.856107,
                            -1.285937
                        ]
                    ]
                ]
            }
        },
        {
            "type": "Feature",
            "properties": {
                "class": "formal"
            },
            "geometry": {
                "type": "Polygon",
                "coordinates": [
                    [
                        [
                            36.800118,
                            -1.294681
                        ],
                        [
                            36.799376,
                            -1.293096
                        ],
                        [
                            36.797499,
                            -1.292647
                        ],
                        [
                            36.797217,
                            -1.294018
                        ],
                        [
                            36.797948,
                            -1.294096
                        ],
                        [
                            36.798398,
                            -1.294186
                        ],
                        [
                            36.798926,
                            -1.294355
                        ],
                        [
                            36.798848,
                            -1.294636
                        ],
                        [
                            36.799927,
                            -1.294939
                        ],
                        [
                            36.800118,
                            -1.294681
                        ]
                    ]
                ]
            }
        },
        {
            "type": "Feature",
            "properties": {
                "class": "formal"
            },
            "geometry": {
                "type": "Polygon",
                "coordinates": [
                    [
                        [
                            36.798589,
                            -1.292653
                        ],
                        [
                            36.798639,
                            -1.292488
                        ],
                        [
                            36.799111,
                            -1.292515
                        ],
                        [
                            36.79913,
                            -1.292296
                        ],
                        [
                            36.798999,
                            -1.292277
                        ],
                        [
                            36.799107,
                            -1.292227
                        ],
                        [
                            36.799157,
                            -1.29194
                        ],
                        [
                            36.798289,
                            -1.291709
                        ],
                        [
                            36.798126,
                            -1.29178
                        ],
                        [
                            36.797992,
                            -1.292555
                        ],
                        [
                            36.798517,
                            -1.292697
                        ],
                        [
                            36.798517,
                            -1.292697
                        ],
                        [
                            36.798589,
                            -1.292653
                        ]
                    ]
                ]
            }
        },
        {
            "type": "Feature",
            "properties": {
                "class": "other"
            },
            "geometry": {
                "type": "Polygon",
                "coordinates": [
                    [
                        [
                            36.74112,
                            -1.3063
                        ],
                        [
                            36.747187,
                            -1.314241
                        ],
                        [
                            36.75264,
                            -1.307438
                        ],
                        [
                            36.751252,
                            -1.303025
                        ],
                        [
                            36.74112,
                            -1.3063
                        ]
                    ]
                ]
            }
        },
        {
            "type": "Feature",
            "properties": {
                "class": "other"
            },
            "geometry": {
                "type": "Polygon",
                "coordinates": [
                    [
                        [
                            36.766389,
                            -1.30074
                        ],
                        [
                            36.767315,
                            -1.302641
                        ],
                        [
                            36.767315,
                            -1.302641
                        ],
                        [
                            36.768412,
                            -1.302744
                        ],
                        [
                            36.768422,
                            -1.302395
                        ],
                        [
                            36.771072,
                            -1.302324
                        ],
                        [
                            36.770985,
                            -1.300704
                        ],
                        [
                            36.768374,
                            -1.30069
                        ],
                        [
                            36.768415,
                            -1.301464
                        ],
                        [
                            36.767148,
                            -1.301167
                        ],
                        [
                            36.766816,
                            -1.300617
                        ],
                        [
                            36.766389,
                            -1.30074
                        ]
                    ]
                ]
            }
        },
        {
            "type": "Feature",
            "properties": {},
            "geometry": {
                "type": "Polygon",
                "coordinates": [
                    [
                        [
                            36.778319,
                            -1.309053
                        ],
                        [
                            36.778319,
                            -1.309053
                        ],
                        [
                            36.778319,
                            -1.309053
                        ],
                        [
                            36.778319,
                            -1.309053
                        ]
                    ]
                ]
            }
        },
        {
            "type": "Feature",
            "properties": {
                "class": "formal"
            },
            "geometry": {
                "type": "Polygon",
                "coordinates": [
                    [
                        [
                            36.778311,
                            -1.309049
                        ],
                        [
                            36.778311,
                            -1.309386
                        ],
                        [
                            36.778699,
                            -1.309386
                        ],
                        [
                            36.778699,
                            -1.309049
                        ],
                        [
                            36.778311,
                            -1.309049
                        ]
                    ]
                ]
            }
        },
        {
            "type": "Feature",
            "properties": {
                "class": "formal"
            },
            "geometry": {
                "type": "Polygon",
                "coordinates": [
                    [
                        [
                            36.778621,
                            -1.309624
                        ],
                        [
                            36.778621,
                            -1.309841
                        ],
                        [
                            36.779801,
                            -1.309841
                        ],
                        [
                            36.779801,
                            -1.309624
                        ],
                        [
                            36.778621,
                            -1.309624
                        ]
                    ]
                ]
            }
        },
        {
            "type": "Feature",
            "properties": {
                "class": "formal"
            },
            "geometry": {
                "type": "Polygon",
                "coordinates": [
                    [
                        [
                            36.778283,
                            -1.308161
                        ],
                        [
                            36.778283,
                            -1.308374
                        ],
                        [
                            36.77925,
                            -1.308374
                        ],
                        [
                            36.77925,
                            -1.308161
                        ],
                        [
                            36.778283,
                            -1.308161
                        ]
                    ]
                ]
            }
        },
        {
            "type": "Feature",
            "properties": {
                "class": "informal"
            },
            "geometry": {
                "type": "Polygon",
                "coordinates": [
                    [
                        [
                            36.779696,
                            -1.306723
                        ],
                        [
                            36.779767,
                            -1.307499
                        ],
                        [
                            36.780178,
                            -1.307865
                        ],
                        [
                            36.780615,
                            -1.307842
                        ],
                        [
                            36.78075,
                            -1.307286
                        ],
                        [
                            36.781848,
                            -1.307241
                        ],
                        [
                            36.781841,
                            -1.307137
                        ],
                        [
                            36.780544,
                            -1.307144
                        ],
                        [
                            36.780533,
                            -1.306685
                        ],
                        [
                            36.780533,
                            -1.306685
                        ],
                        [
                            36.779696,
                            -1.306723
                        ]
                    ]
                ]
            }
        },
        {
            "type": "Feature",
            "properties": {
                "class": "informal"
            },
            "geometry": {
                "type": "Polygon",
                "coordinates": [
                    [
                        [
                            36.783931,
                            -1.313486
                        ],
                        [
                            36.787402,
                            -1.314607
                        ],
                        [
                            36.787402,
                            -1.314607
                        ],
                        [
                            36.787938,
                            -1.314528
                        ],
                        [
                            36.788801,
                            -1.313675
                        ],
                        [
                            36.789782,
                            -1.313229
                        ],
                        [
                            36.7877,
                            -1.311414
                        ],
                        [
                            36.784149,
                            -1.31308
                        ],
                        [
                            36.783931,
                            -1.313486
                        ]
                    ]
                ]
            }
        },
        {
            "type": "Feature",
            "properties": {
                "class": "informal",
                "name": "kibera"
            },
            "geometry": {
                "type": "Polygon",
                "coordinates": [
                    [
                        [
                            36.780308,
                            -1.316036
                        ],
                        [
                            36.780583,
                            -1.316141
                        ],
                        [
                            36.781022,
                            -1.31624
                        ],
                        [
                            36.78194,
                            -1.315884
                        ],
                        [
                            36.782413,
                            -1.315024
                        ],
                        [
                            36.782437,
                            -1.314452
                        ],
                        [
                            36.781905,
                            -1.314393
                        ],
                        [
                            36.780741,
                            -1.314861
                        ],
                        [
                            36.780308,
                            -1.316036
                        ]
                    ]
                ]
            }
        },
        {
            "type": "Feature",
            "properties": {
                "class": "informal"
            },
            "geometry": {
                "type": "Polygon",
                "coordinates": [
                    [
                        [
                            36.794068,
                            -1.317878
                        ],
                        [
                            36.794719,
                            -1.318412
                        ],
                        [
                            36.796553,
                            -1.318161
                        ],
                        [
                            36.798104,
                            -1.318545
                        ],
                        [
                            36.799005,
                            -1.317995
                        ],
                        [
                            36.797988,
                            -1.317361
                        ],
                        [
                            36.795853,
                            -1.316945
                        ],
                        [
                            36.794952,
                            -1.316628
                        ],
                        [
                            36.794952,
                            -1.316628
                        ],
                        [
                            36.794068,
                            -1.317878
                        ]
                    ]
                ]
            }
        },
        {
            "type": "Feature",
            "properties": {
                "class": "other"
            },
            "geometry": {
                "type": "Polygon",
                "coordinates": [
                    [
                        [
                            36.734073,
                            -1.275603
                        ],
                        [
                            36.735536,
                            -1.276773
                        ],
                        [
                            36.735536,
                            -1.276773
                        ],
                        [
                            36.735988,
                            -1.278022
                        ],
                        [
                            36.736786,
                            -1.277757
                        ],
                        [
                            36.736945,
                            -1.278793
                        ],
                        [
                            36.739285,
                            -1.279883
                        ],
                        [
                            36.739764,
                            -1.27874
                        ],
                        [
                            36.738434,
                            -1.278474
                        ],
                        [
                            36.738647,
                            -1.277384
                        ],
                        [
                            36.736679,
                            -1.276241
                        ],
                        [
                            36.737211,
                            -1.274859
                        ],
                        [
                            36.73628,
                            -1.27555
                        ],
                        [
                            36.735562,
                            -1.274673
                        ],
                        [
                            36.734073,
                            -1.275603
                        ]
                    ]
                ]
            }
        },
        {
            "type": "Feature",
            "properties": {
                "class": "formal"
            },
            "geometry": {
                "type": "Polygon",
                "coordinates": [
                    [
                        [
                            36.77398,
                            -1.275583
                        ],
                        [
                            36.773907,
                            -1.276249
                        ],
                        [
                            36.773907,
                            -1.276249
                        ],
                        [
                            36.774147,
                            -1.276242
                        ],
                        [
                            36.774167,
                            -1.275583
                        ],
                        [
                            36.77398,
                            -1.275583
                        ]
                    ]
                ]
            }
        },
        {
            "type": "Feature",
            "properties": {
                "class": "other"
            },
            "geometry": {
                "type": "Polygon",
                "coordinates": [
                    [
                        [
                            36.772448,
                            -1.275942
                        ],
                        [
                            36.772894,
                            -1.276602
                        ],
                        [
                            36.773321,
                            -1.276409
                        ],
                        [
                            36.773227,
                            -1.276076
                        ],
                        [
                            36.772967,
                            -1.275749
                        ],
                        [
                            36.772727,
                            -1.275656
                        ],
                        [
                            36.772448,
                            -1.275942
                        ]
                    ]
                ]
            }
        },
        {
            "type": "Feature",
            "properties": {
                "class": "other"
            },
            "geometry": {
                "type": "Polygon",
                "coordinates": [
                    [
                        [
                            36.771448,
                            -1.275443
                        ],
                        [
                            36.771748,
                            -1.275789
                        ],
                        [
                            36.771748,
                            -1.275789
                        ],
                        [
                            36.771331,
                            -1.276324
                        ],
                        [
                            36.771481,
                            -1.276376
                        ],
                        [
                            36.771748,
                            -1.276116
                        ],
                        [
                            36.772094,
                            -1.276016
                        ],
                        [
                            36.772514,
                            -1.276415
                        ],
                        [
                            36.772614,
                            -1.276362
                        ],
                        [
                            36.772234,
                            -1.275703
                        ],
                        [
                            36.772547,
                            -1.275076
                        ],
                        [
                            36.772474,
                            -1.27503
                        ],
                        [
                            36.771968,
                            -1.275516
                        ],
                        [
                            36.771514,
                            -1.275243
                        ],
                        [
                            36.771361,
                            -1.27519
                        ],
                        [
                            36.771448,
                            -1.275443
                        ]
                    ]
                ]
            }
        },
        {
            "type": "Feature",
            "properties": {
                "class": "other"
            },
            "geometry": {
                "type": "Polygon",
                "coordinates": [
                    [
                        [
                            36.895044,
                            -1.415531
                        ],
                        [
                            36.93239,
                            -1.431958
                        ],
                        [
                            36.936218,
                            -1.401437
                        ],
                        [
                            36.898965,
                            -1.39481
                        ],
                        [
                            36.895044,
                            -1.415531
                        ]
                    ]
                ]
            }
        },
        {
            "type": "Feature",
            "properties": {
                "class": "other"
            },
            "geometry": {
                "type": "Polygon",
                "coordinates": [
                    [
                        [
                            36.769464,
                            -1.342516
                        ],
                        [
                            36.763033,
                            -1.354802
                        ],
                        [
                            36.768392,
                            -1.366659
                        ],
                        [
                            36.792685,
                            -1.366517
                        ],
                        [
                            36.7939,
                            -1.345087
                        ],
                        [
                            36.779467,
                            -1.338158
                        ],
                        [
                            36.779467,
                            -1.338158
                        ],
                        [
                            36.769464,
                            -1.342516
                        ]
                    ]
                ]
            }
        },
        {
            "type": "Feature",
            "properties": {},
            "geometry": {
                "type": "Polygon",
                "coordinates": [
                    [
                        [
                            36.911989,
                            -1.339643
                        ],
                        [
                            36.911989,
                            -1.339643
                        ],
                        [
                            36.911989,
                            -1.339643
                        ],
                        [
                            36.911989,
                            -1.339643
                        ]
                    ]
                ]
            }
        },
        {
            "type": "Feature",
            "properties": {},
            "geometry": {
                "type": "Polygon",
                "coordinates": [
                    [
                        [
                            36.919558,
                            -1.334269
                        ],
                        [
                            36.919558,
                            -1.334269
                        ],
                        [
                            36.919558,
                            -1.334269
                        ],
                        [
                            36.919558,
                            -1.334269
                        ]
                    ]
                ]
            }
        },
        {
            "type": "Feature",
            "properties": {
                "class": "formal"
            },
            "geometry": {
                "type": "Polygon",
                "coordinates": [
                    [
                        [
                            36.911879,
                            -1.339753
                        ],
                        [
                            36.913525,
                            -1.341946
                        ],
                        [
                            36.913525,
                            -1.341946
                        ],
                        [
                            36.914457,
                            -1.341617
                        ],
                        [
                            36.915006,
                            -1.342111
                        ],
                        [
                            36.91539,
                            -1.341727
                        ],
                        [
                            36.915938,
                            -1.342385
                        ],
                        [
                            36.917968,
                            -1.34063
                        ],
                        [
                            36.917803,
                            -1.340301
                        ],
                        [
                            36.918132,
                            -1.340137
                        ],
                        [
                            36.917913,
                            -1.339862
                        ],
                        [
                            36.918242,
                            -1.339588
                        ],
                        [
                            36.917529,
                            -1.338162
                        ],
                        [
                            36.918077,
                            -1.337888
                        ],
                        [
                            36.918516,
                            -1.338327
                        ],
                        [
                            36.919449,
                            -1.337779
                        ],
                        [
                            36.919449,
                            -1.337395
                        ],
                        [
                            36.920655,
                            -1.336353
                        ],
                        [
                            36.919394,
                            -1.334269
                        ],
                        [
                            36.911879,
                            -1.339753
                        ]
                    ]
                ]
            }
        },
        {
            "type": "Feature",
            "properties": {
                "@circle": {
                    "type": "Geodesic",
                    "center": [
                        36.9250447,
                        -1.330394
                    ]
                },
                "class": "formal"
            },
            "geometry": {
                "type": "Polygon",
                "coordinates": [
                    [
                        [
                            36.925045,
                            -1.328864
                        ],
                        [
                            36.924853,
                            -1.328877
                        ],
                        [
                            36.924758,
                            -1.328892
                        ],
                        [
                            36.924664,
                            -1.328913
                        ],
                        [
                            36.924572,
                            -1.328939
                        ],
                        [
                            36.924481,
                            -1.328972
                        ],
                        [
                            36.924393,
                            -1.32901
                        ],
                        [
                            36.924308,
                            -1.329054
                        ],
                        [
                            36.924225,
                            -1.329103
                        ],
                        [
                            36.924145,
                            -1.329157
                        ],
                        [
                            36.924069,
                            -1.329215
                        ],
                        [
                            36.923997,
                            -1.329279
                        ],
                        [
                            36.923929,
                            -1.329347
                        ],
                        [
                            36.923866,
                            -1.329419
                        ],
                        [
                            36.923807,
                            -1.329495
                        ],
                        [
                            36.923753,
                            -1.329574
                        ],
                        [
                            36.923704,
                            -1.329657
                        ],
                        [
                            36.92366,
                            -1.329743
                        ],
                        [
                            36.923622,
                            -1.329831
                        ],
                        [
                            36.92359,
                            -1.329921
                        ],
                        [
                            36.923563,
                            -1.330014
                        ],
                        [
                            36.923542,
                            -1.330107
                        ],
                        [
                            36.923527,
                            -1.330202
                        ],
                        [
                            36.923518,
                            -1.330298
                        ],
                        [
                            36.923515,
                            -1.330394
                        ],
                        [
                            36.923518,
                            -1.33049
                        ],
                        [
                            36.923527,
                            -1.330586
                        ],
                        [
                            36.923542,
                            -1.330681
                        ],
                        [
                            36.923563,
                            -1.330774
                        ],
                        [
                            36.92359,
                            -1.330867
                        ],
                        [
                            36.923622,
                            -1.330957
                        ],
                        [
                            36.92366,
                            -1.331045
                        ],
                        [
                            36.923704,
                            -1.331131
                        ],
                        [
                            36.923753,
                            -1.331214
                        ],
                        [
                            36.923807,
                            -1.331293
                        ],
                        [
                            36.923866,
                            -1.331369
                        ],
                        [
                            36.923929,
                            -1.331441
                        ],
                        [
                            36.923997,
                            -1.331509
                        ],
                        [
                            36.924069,
                            -1.331573
                        ],
                        [
                            36.924145,
                            -1.331632
                        ],
                        [
                            36.924225,
                            -1.331686
                        ],
                        [
                            36.924308,
                            -1.331734
                        ],
                        [
                            36.924393,
                            -1.331778
                        ],
                        [
                            36.924481,
                            -1.331816
                        ],
                        [
                            36.924572,
                            -1.331849
                        ],
                        [
                            36.924664,
                            -1.331876
                        ],
                        [
                            36.924758,
                            -1.331897
                        ],
                        [
                            36.924853,
                            -1.331912
                        ],
                        [
                            36.924949,
                            -1.331921
                        ],
                        [
                            36.925045,
                            -1.331924
                        ],
                        [
                            36.925141,
                            -1.331921
                        ],
                        [
                            36.925236,
                            -1.331912
                        ],
                        [
                            36.925331,
                            -1.331897
                        ],
                        [
                            36.925425,
                            -1.331876
                        ],
                        [
                            36.925517,
                            -1.331849
                        ],
                        [
                            36.925608,
                            -1.331816
                        ],
                        [
                            36.925696,
                            -1.331778
                        ],
                        [
                            36.925782,
                            -1.331734
                        ],
                        [
                            36.925865,
                            -1.331686
                        ],
                        [
                            36.925944,
                            -1.331632
                        ],
                        [
                            36.92602,
                            -1.331573
                        ],
                        [
                            36.926092,
                            -1.331509
                        ],
                        [
                            36.92616,
                            -1.331441
                        ],
                        [
                            36.926224,
                            -1.331369
                        ],
                        [
                            36.926282,
                            -1.331293
                        ],
                        [
                            36.926337,
                            -1.331214
                        ],
                        [
                            36.926385,
                            -1.331131
                        ],
                        [
                            36.926429,
                            -1.331045
                        ],
                        [
                            36.926467,
                            -1.330957
                        ],
                        [
                            36.9265,
                            -1.330867
                        ],
                        [
                            36.926527,
                            -1.330774
                        ],
                        [
                            36.926548,
                            -1.330681
                        ],
                        [
                            36.926563,
                            -1.330586
                        ],
                        [
                            36.926572,
                            -1.33049
                        ],
                        [
                            36.926575,
                            -1.330394
                        ],
                        [
                            36.926572,
                            -1.330298
                        ],
                        [
                            36.926563,
                            -1.330202
                        ],
                        [
                            36.926548,
                            -1.330107
                        ],
                        [
                            36.926527,
                            -1.330014
                        ],
                        [
                            36.9265,
                            -1.329921
                        ],
                        [
                            36.926467,
                            -1.329831
                        ],
                        [
                            36.926429,
                            -1.329743
                        ],
                        [
                            36.926385,
                            -1.329657
                        ],
                        [
                            36.926337,
                            -1.329574
                        ],
                        [
                            36.926282,
                            -1.329495
                        ],
                        [
                            36.926224,
                            -1.329419
                        ],
                        [
                            36.92616,
                            -1.329347
                        ],
                        [
                            36.926092,
                            -1.329279
                        ],
                        [
                            36.92602,
                            -1.329215
                        ],
                        [
                            36.925944,
                            -1.329157
                        ],
                        [
                            36.925865,
                            -1.329103
                        ],
                        [
                            36.925782,
                            -1.329054
                        ],
                        [
                            36.925696,
                            -1.32901
                        ],
                        [
                            36.925608,
                            -1.328972
                        ],
                        [
                            36.925517,
                            -1.328939
                        ],
                        [
                            36.925425,
                            -1.328913
                        ],
                        [
                            36.925331,
                            -1.328892
                        ],
                        [
                            36.925236,
                            -1.328877
                        ],
                        [
                            36.925141,
                            -1.328867
                        ],
                        [
                            36.925045,
                            -1.328864
                        ]
                    ]
                ]
            }
        },
        {
            "type": "Feature",
            "properties": {
                "class": "other"
            },
            "geometry": {
                "type": "Polygon",
                "coordinates": [
                    [
                        [
                            36.914778,
                            -1.326255
                        ],
                        [
                            36.919341,
                            -1.332029
                        ],
                        [
                            36.927398,
                            -1.326683
                        ],
                        [
                            36.938021,
                            -1.324687
                        ],
                        [
                            36.943795,
                            -1.32034
                        ],
                        [
                            36.936452,
                            -1.311002
                        ],
                        [
                            36.936452,
                            -1.311002
                        ],
                        [
                            36.914778,
                            -1.326255
                        ]
                    ]
                ]
            }
        },
        {
            "type": "Feature",
            "properties": {},
            "geometry": {
                "type": "Polygon",
                "coordinates": [
                    [
                        [
                            36.903506,
                            -1.3082
                        ],
                        [
                            36.907961,
                            -1.315239
                        ],
                        [
                            36.910035,
                            -1.313872
                        ],
                        [
                            36.908315,
                            -1.313236
                        ],
                        [
                            36.90442,
                            -1.307442
                        ],
                        [
                            36.903506,
                            -1.3082
                        ]
                    ]
                ]
            }
        },
        {
            "type": "Feature",
            "properties": {},
            "geometry": {
                "type": "Polygon",
                "coordinates": [
                    [
                        [
                            36.900461,
                            -1.305272
                        ],
                        [
                            36.900461,
                            -1.305272
                        ],
                        [
                            36.900461,
                            -1.305272
                        ],
                        [
                            36.900461,
                            -1.305272
                        ]
                    ]
                ]
            }
        },
        {
            "type": "Feature",
            "properties": {
                "class": "formal"
            },
            "geometry": {
                "type": "Polygon",
                "coordinates": [
                    [
                        [
                            36.900472,
                            -1.304797
                        ],
                        [
                            36.900335,
                            -1.305114
                        ],
                        [
                            36.901257,
                            -1.305544
                        ],
                        [
                            36.901417,
                            -1.305212
                        ],
                        [
                            36.900472,
                            -1.304797
                        ]
                    ]
                ]
            }
        },
        {
            "type": "Feature",
            "properties": {
                "class": "formal"
            },
            "geometry": {
                "type": "Polygon",
                "coordinates": [
                    [
                        [
                            36.898571,
                            -1.306448
                        ],
                        [
                            36.899189,
                            -1.307309
                        ],
                        [
                            36.899189,
                            -1.307309
                        ],
                        [
                            36.899497,
                            -1.307113
                        ],
                        [
                            36.898874,
                            -1.306246
                        ],
                        [
                            36.898571,
                            -1.306448
                        ]
                    ]
                ]
            }
        },
        {
            "type": "Feature",
            "properties": {
                "class": "informal"
            },
            "geometry": {
                "type": "Polygon",
                "coordinates": [
                    [
                        [
                            36.899673,
                            -1.297225
                        ],
                        [
                            36.899316,
                            -1.298202
                        ],
                        [
                            36.900651,
                            -1.299288
                        ],
                        [
                            36.90266,
                            -1.298325
                        ],
                        [
                            36.9046,
                            -1.297858
                        ],
                        [
                            36.90266,
                            -1.296262
                        ],
                        [
                            36.899673,
                            -1.297225
                        ]
                    ]
                ]
            }
        },
        {
            "type": "Feature",
            "properties": {
                "class": "informal"
            },
            "geometry": {
                "type": "Polygon",
                "coordinates": [
                    [
                        [
                            36.898937,
                            -1.29626
                        ],
                        [
                            36.898392,
                            -1.296905
                        ],
                        [
                            36.899154,
                            -1.298038
                        ],
                        [
                            36.899437,
                            -1.297327
                        ],
                        [
                            36.899629,
                            -1.29714
                        ],
                        [
                            36.899949,
                            -1.297083
                        ],
                        [
                            36.899754,
                            -1.296727
                        ],
                        [
                            36.89946,
                            -1.296933
                        ],
                        [
                            36.89946,
                            -1.296933
                        ],
                        [
                            36.898937,
                            -1.29626
                        ]
                    ]
                ]
            }
        },
        {
            "type": "Feature",
            "properties": {},
            "geometry": {
                "type": "Polygon",
                "coordinates": [
                    [
                        [
                            36.920598,
                            -1.299479
                        ],
                        [
                            36.920598,
                            -1.299479
                        ],
                        [
                            36.920598,
                            -1.299479
                        ],
                        [
                            36.920598,
                            -1.299479
                        ]
                    ]
                ]
            }
        },
        {
            "type": "Feature",
            "properties": {
                "class": "formal"
            },
            "geometry": {
                "type": "Polygon",
                "coordinates": [
                    [
                        [
                            36.920635,
                            -1.299553
                        ],
                        [
                            36.920635,
                            -1.30206
                        ],
                        [
                            36.923365,
                            -1.30206
                        ],
                        [
                            36.923365,
                            -1.299553
                        ],
                        [
                            36.920635,
                            -1.299553
                        ]
                    ]
                ]
            }
        },
        {
            "type": "Feature",
            "properties": {
                "class": "other"
            },
            "geometry": {
                "type": "Polygon",
                "coordinates": [
                    [
                        [
                            36.920206,
                            -1.296555
                        ],
                        [
                            36.919387,
                            -1.29919
                        ],
                        [
                            36.919387,
                            -1.302158
                        ],
                        [
                            36.920436,
                            -1.302005
                        ],
                        [
                            36.920551,
                            -1.299431
                        ],
                        [
                            36.92334,
                            -1.299303
                        ],
                        [
                            36.924159,
                            -1.295721
                        ],
                        [
                            36.921805,
                            -1.293777
                        ],
                        [
                            36.921805,
                            -1.293777
                        ],
                        [
                            36.920206,
                            -1.296555
                        ]
                    ]
                ]
            }
        },
        {
            "type": "Feature",
            "properties": {
                "class": "formal"
            },
            "geometry": {
                "type": "Polygon",
                "coordinates": [
                    [
                        [
                            36.705777,
                            -1.326457
                        ],
                        [
                            36.705827,
                            -1.326831
                        ],
                        [
                            36.705827,
                            -1.326831
                        ],
                        [
                            36.707395,
                            -1.326495
                        ],
                        [
                            36.707234,
                            -1.326047
                        ],
                        [
                            36.70643,
                            -1.326455
                        ],
                        [
                            36.705777,
                            -1.326457
                        ]
                    ]
                ]
            }
        },
        {
            "type": "Feature",
            "properties": {
                "class": "formal"
            },
            "geometry": {
                "type": "Polygon",
                "coordinates": [
                    [
                        [
                            36.696133,
                            -1.329304
                        ],
                        [
                            36.696461,
                            -1.329472
                        ],
                        [
                            36.696461,
                            -1.329472
                        ],
                        [
                            36.696529,
                            -1.329297
                        ],
                        [
                            36.696362,
                            -1.329213
                        ],
                        [
                            36.696331,
                            -1.329281
                        ],
                        [
                            36.696172,
                            -1.329236
                        ],
                        [
                            36.696133,
                            -1.329304
                        ]
                    ]
                ]
            }
        },
        {
            "type": "Feature",
            "properties": {
                "class": "other"
            },
            "geometry": {
                "type": "Polygon",
                "coordinates": [
                    [
                        [
                            36.695131,
                            -1.329043
                        ],
                        [
                            36.695468,
                            -1.332535
                        ],
                        [
                            36.695468,
                            -1.332535
                        ],
                        [
                            36.698725,
                            -1.331491
                        ],
                        [
                            36.695131,
                            -1.329043
                        ]
                    ]
                ]
            }
        },
        {
            "type": "Feature",
            "properties": {
                "class": "formal"
            },
            "geometry": {
                "type": "Polygon",
                "coordinates": [
                    [
                        [
                            36.803946,
                            -1.210949
                        ],
                        [
                            36.804427,
                            -1.211306
                        ],
                        [
                            36.804867,
                            -1.21132
                        ],
                        [
                            36.804936,
                            -1.211196
                        ],
                        [
                            36.804111,
                            -1.210757
                        ],
                        [
                            36.804111,
                            -1.210757
                        ],
                        [
                            36.803946,
                            -1.210949
                        ]
                    ]
                ]
            }
        },
        {
            "type": "Feature",
            "properties": {
                "class": "formal"
            },
            "geometry": {
                "type": "Polygon",
                "coordinates": [
                    [
                        [
                            36.845645,
                            -1.322741
                        ],
                        [
                            36.845678,
                            -1.322942
                        ],
                        [
                            36.845678,
                            -1.322942
                        ],
                        [
                            36.847965,
                            -1.322674
                        ],
                        [
                            36.848489,
                            -1.321737
                        ],
                        [
                            36.848266,
                            -1.321682
                        ],
                        [
                            36.847842,
                            -1.322507
                        ],
                        [
                            36.845645,
                            -1.322741
                        ]
                    ]
                ]
            }
        },
        {
            "type": "Feature",
            "properties": {
                "class": "other"
            },
            "geometry": {
                "type": "Polygon",
                "coordinates": [
                    [
                        [
                            36.846414,
                            -1.323199
                        ],
                        [
                            36.845419,
                            -1.324294
                        ],
                        [
                            36.845419,
                            -1.324294
                        ],
                        [
                            36.84523,
                            -1.326336
                        ],
                        [
                            36.847059,
                            -1.326458
                        ],
                        [
                            36.848132,
                            -1.325675
                        ],
                        [
                            36.848344,
                            -1.325162
                        ],
                        [
                            36.848077,
                            -1.323042
                        ],
                        [
                            36.846414,
                            -1.323199
                        ]
                    ]
                ]
            }
        },
        {
            "type": "Feature",
            "properties": {
                "class": "other"
            },
            "geometry": {
                "type": "Polygon",
                "coordinates": [
                    [
                        [
                            37.00347,
                            -1.241303
                        ],
                        [
                            37.011079,
                            -1.254542
                        ],
                        [
                            37.011079,
                            -1.254542
                        ],
                        [
                            37.031042,
                            -1.242785
                        ],
                        [
                            37.02531,
                            -1.230336
                        ],
                        [
                            37.00347,
                            -1.241303
                        ]
                    ]
                ]
            }
        },
        {
            "type": "Feature",
            "properties": {
                "class": "formal"
            },
            "geometry": {
                "type": "Polygon",
                "coordinates": [
                    [
                        [
                            37.003872,
                            -1.258533
                        ],
                        [
                            37.003937,
                            -1.258646
                        ],
                        [
                            37.003937,
                            -1.258646
                        ],
                        [
                            37.004016,
                            -1.2586
                        ],
                        [
                            37.003945,
                            -1.258485
                        ],
                        [
                            37.003872,
                            -1.258533
                        ]
                    ]
                ]
            }
        },
        {
            "type": "Feature",
            "properties": {
                "class": "other"
            },
            "geometry": {
                "type": "Polygon",
                "coordinates": [
                    [
                        [
                            37.003293,
                            -1.258464
                        ],
                        [
                            37.003609,
                            -1.258918
                        ],
                        [
                            37.003609,
                            -1.258918
                        ],
                        [
                            37.003816,
                            -1.258795
                        ],
                        [
                            37.003555,
                            -1.258334
                        ],
                        [
                            37.003293,
                            -1.258464
                        ]
                    ]
                ]
            }
        }
    ]
}