{
  "type": "FeatureCollection",
  "features": [
    {
      "type": "Feature",
      "properties": {
        "class": "informal",
        "name": "Kibera Core"
      },
      "geometry": {
        "type": "Polygon",
        "coordinates": [
          [
            [
              36.786,
              -1.312
            ],
            [
              36.788,
              -1.312
            ],
            [
              36.788,
              -1.314
            ],
            [
              36.786,
              -1.314
            ],
            [
              36.786,
              -1.312
            ]
          ]
        ]
      }
    },
    {
      "type": "Feature",
      "properties": {
        "class": "informal",
        "name": "Kibera South"
      },
      "geometry": {
        "type": "Polygon",
        "coordinates": [
          [
            [
              36.782,
              -1.315
            ],
            [
              36.784,
              -1.315
            ],
            [
              36.784,
              -1.317
            ],
            [
              36.782,
              -1.317
            ],
            [
              36.782,
              -1.315
            ]
          ]
        ]
      }
    },
    {
      "type": "Feature",
      "properties": {
        "class": "informal",
        "name": "Mathare"
      },
      "geometry": {
        "type": "Polygon",
        "coordinates": [
          [
            [
              36.855,
              -1.261
            ],
            [
              36.857,
              -1.261
            ],
            [
              36.857,
              -1.263
            ],
            [
              36.855,
              -1.263
            ],
            [
              36.855,
              -1.261
            ]
          ]
        ]
      }
    },
    {
      "type": "Feature",
      "properties": {
        "class": "informal",
        "name": "Korogocho"
      },
      "geometry": {
        "type": "Polygon",
        "coordinates": [
          [
            [
              36.882,
              -1.247
            ],
            [
              36.884,
              -1.247
            ],
            [
              36.884,
              -1.249
            ],
            [
              36.882,
              -1.249
            ],
            [
              36.882,
              -1.247
            ]
          ]
        ]
      }
    },
    {
      "type": "Feature",
      "properties": {
        "class": "informal",
        "name": "Mukuru"
      },
      "geometry": {
        "type": "Polygon",
        "coordinates": [
          [
            [
              36.848,
              -1.321
            ],
            [
              36.85,
              -1.321
            ],
            [
              36.85,
              -1.323
            ],
            [
              36.848,
              -1.323
            ],
            [
              36.848,
              -1.321
            ]
          ]
        ]
      }
    },
    {
      "type": "Feature",
      "properties": {
        "class": "informal",
        "name": "Kangemi"
      },
      "geometry": {
        "type": "Polygon",
        "coordinates": [
          [
            [
              36.744,
              -1.265
            ],
            [
              36.746,
              -1.265
            ],
            [
              36.746,
              -1.267
            ],
            [
              36.744,
              -1.267
            ],
            [
              36.744,
              -1.265
            ]
          ]
        ]
      }
    },
    {
      "type": "Feature",
      "properties": {
        "class": "formal",
        "name": "Karen East"
      },
      "geometry": {
        "type": "Polygon",
        "coordinates": [
          [
            [
              36.701,
              -1.324
            ],
            [
              36.703,
              -1.324
            ],
            [
              36.703,
              -1.326
            ],
            [
              36.701,
              -1.326
            ],
            [
              36.701,
              -1.324
            ]
          ]
        ]
      }
    },
    {
      "type": "Feature",
      "properties": {
        "class": "formal",
        "name": "Karen West"
      },
      "geometry": {
        "type": "Polygon",
        "coordinates": [
          [
            [
              36.695,
              -1.328
            ],
            [
              36.697,
              -1.328
            ],
            [
              36.697,
              -1.33
            ],
            [
              36.695,
              -1.33
            ],
            [
              36.695,
              -1.328
            ]
          ]
        ]
      }
    },
    {
      "type": "Feature",
      "properties": {
        "class": "formal",
        "name": "Runda"
      },
      "geometry": {
        "type": "Polygon",
        "coordinates": [
          [
            [
              36.804,
              -1.207
            ],
            [
              36.806,
              -1.207
            ],
            [
              36.806,
              -1.209
            ],
            [
              36.804,
              -1.209
            ],
            [
              36.804,
              -1.207
            ]
          ]
        ]
      }
    },
    {
      "type": "Feature",
      "properties": {
        "class": "formal",
        "name": "Westlands"
      },
      "geometry": {
        "type": "Polygon",
        "coordinates": [
          [
            [
              36.809,
              -1.264
            ],
            [
              36.811,
              -1.264
            ],
            [
              36.811,
              -1.266
            ],
            [
              36.809,
              -1.266
            ],
            [
              36.809,
              -1.264
            ]
          ]
        ]
      }
    },
    {
      "type": "Feature",
      "properties": {
        "class": "formal",
        "name": "Kilimani"
      },
      "geometry": {
        "type": "Polygon",
        "coordinates": [
          [
            [
              36.782,
              -1.292
            ],
            [
              36.784,
              -1.292
            ],
            [
              36.784,
              -1.294
            ],
            [
              36.782,
              -1.294
            ],
            [
              36.782,
              -1.292
            ]
          ]
        ]
      }
    },
    {
      "type": "Feature",
      "properties": {
        "class": "formal",
        "name": "Lavington"
      },
      "geometry": {
        "type": "Polygon",
        "coordinates": [
          [
            [
              36.775193842791225,
              -1.2901110820601631
            ],
            [
              36.77719384279123,
              -1.2901110820601631
            ],
            [
              36.77719384279123,
              -1.2921110820601631
            ],
            [
              36.776509642791225,
              -1.292236082060163
            ],
            [
              36.775193842791225,
              -1.2921110820601631
            ],
            [
              36.77443064279122,
              -1.290611882060163
            ],
            [
              36.775193842791225,
              -1.2901110820601631
            ]
          ]
        ]
      }
    },
    {
      "type": "Feature",
      "properties": {
        "class": "vegetation",
        "name": "Karura Forest"
      },
      "geometry": {
        "type": "Polygon",
        "coordinates": [
          [
            [
              36.832,
              -1.236
            ],
            [
              36.834,
              -1.236
            ],
            [
              36.834,
              -1.238
            ],
            [
              36.832,
              -1.238
            ],
            [
              36.832,
              -1.236
            ]
          ]
        ]
      }
    },
    {
      "type": "Feature",
      "properties": {
        "class": "vegetation",
        "name": "Ngong Road Forest"
      },
      "geometry": {
        "type": "Polygon",
        "coordinates": [
          [
            [
              36.759,
              -1.304
            ],
            [
              36.761,
              -1.304
            ],
            [
              36.761,
              -1.306
            ],
            [
              36.759,
              -1.306
            ],
            [
              36.759,
              -1.304
            ]
          ]
        ]
      }
    },
    {
      "type": "Feature",
      "properties": {
        "class": "vegetation",
        "name": "City Park"
      },
      "geometry": {
        "type": "Polygon",
        "coordinates": [
          [
            [
              36.826,
              -1.269
            ],
            [
              36.828,
              -1.269
            ],
            [
              36.828,
              -1.271
            ],
            [
              36.826,
              -1.271
            ],
            [
              36.826,
              -1.269
            ]
          ]
        ]
      }
    },
    {
      "type": "Feature",
      "properties": {
        "class": "water",
        "name": "Nairobi Dam"
      },
      "geometry": {
        "type": "Polygon",
        "coordinates": [
          [
            [
              36.7935,
              -1.3165
            ],
            [
              36.7945,
              -1.3165
            ],
            [
              36.7945,
              -1.3175
            ],
            [
              36.7935,
              -1.3175
            ],
            [
              36.7935,
              -1.3165
            ]
          ]
        ]
      }
    },
    {
      "type": "Feature",
      "properties": {
        "class": "other",
        "name": "JKIA Airport"
      },
      "geometry": {
        "type": "Polygon",
        "coordinates": [
          [
            [
              36.925,
              -1.319
            ],
            [
              36.927,
              -1.319
            ],
            [
              36.927,
              -1.321
            ],
            [
              36.925,
              -1.321
            ],
            [
              36.925,
              -1.319
            ]
          ]
        ]
      }
    },
    {
      "type": "Feature",
      "properties": {
        "class": "other",
        "name": "Industrial Area"
      },
      "geometry": {
        "type": "Polygon",
        "coordinates": [
          [
            [
              36.856,
              -1.304
            ],
            [
              36.858,
              -1.304
            ],
            [
              36.858,
              -1.306
            ],
            [
              36.856,
              -1.306
            ],
            [
              36.856,
              -1.304
            ]
          ]
        ]
      }
    },
    {
      "type": "Feature",
      "properties": {
        "class": "informal",
        "name": "Jerusalem "
      },
      "geometry": {
        "type": "Polygon",
        "coordinates": [
          [
            [
              36.8671973,
              -1.2795674
            ],
            [
              36.8695489,
              -1.2770428
            ],
            [
              36.8698385,
              -1.276209
            ],
            [
              36.8705335,
              -1.2765911
            ],
            [
              36.8700354,
              -1.2777145
            ],
            [
              36.8694214,
              -1.2783167
            ],
            [
              36.8689813,
              -1.2794748
            ],
            [
              36.867985,
              -1.2802391
            ],
            [
              36.8676491,
              -1.2799496
            ],
            [
              36.8676491,
              -1.2799496
            ],
            [
              36.8671973,
              -1.2795674
            ]
          ]
        ]
      }
    },
    {
      "type": "Feature",
      "properties": {
        "class": "informal",
        "name": "Jerusalem 2"
      },
      "geometry": {
        "type": "Polygon",
        "coordinates": [
          [
            [
              36.868853,
              -1.2797806
            ],
            [
              36.8691859,
              -1.2794674
            ],
            [
              36.8696361,
              -1.2782931
            ],
            [
              36.8701647,
              -1.2777059
            ],
            [
              36.871496,
              -1.2745939
            ],
            [
              36.8723574,
              -1.2748092
            ],
            [
              36.8724944,
              -1.2753963
            ],
            [
              36.8719462,
              -1.2766881
            ],
            [
              36.8720833,
              -1.2776472
            ],
            [
              36.8717896,
              -1.2782735
            ],
            [
              36.8705758,
              -1.2786258
            ],
            [
              36.8704192,
              -1.2792913
            ],
            [
              36.8691663,
              -1.2799959
            ],
            [
              36.8689901,
              -1.279898
            ],
            [
              36.8689901,
              -1.279898
            ],
            [
              36.868853,
              -1.2797806
            ]
          ]
        ]
      }
    }
  ]
}